NAVSTAR 48 (USA 151)    
1 26407U 00040A   26129.43802426 -.00000001  00000+0  00000+0 0  9992
2 26407  54.8582 216.7014 0121452 302.3505  83.3433  2.00557398189176
NAVSTAR 51 (USA 166)    
1 27663U 03005A   26129.24453897 -.00000001  00000+0  00000+0 0  9994
2 27663  54.8893 216.5161 0148074  52.9991 328.4130  2.00562678170537
NAVSTAR 54 (USA 177)    
1 28190U 04009A   26129.47460317 -.00000023  00000+0  00000+0 0  9999
2 28190  54.8632 277.2506 0114313 171.3768 170.2100  2.00556014162165
NAVSTAR 56 (USA 180)    
1 28474U 04045A   26129.17717354 -.00000052  00000+0  00000+0 0  9999
2 28474  55.1587 326.4673 0169942 315.3689 236.5800  2.00554204157644
NAVSTAR 57 (USA 183)    
1 28874U 05038A   26129.42875208 -.00000023  00000+0  00000+0 0  9995
2 28874  54.9111 274.7409 0127738 295.9252  39.5787  2.00568408151051
NAVSTAR 58 (USA 190)    
1 29486U 06042A   26129.12241348  .00000079  00000+0  00000+0 0  9990
2 29486  54.7047 152.8899 0106130  53.6450 318.5173  2.00572106143610
NAVSTAR 59 (USA 192)    
1 29601U 06052A   26128.53082923  .00000000  00000+0  00000+0 0  9990
2 29601  54.9408 215.5782 0086081  90.4403 270.5959  2.00555977142614
NAVSTAR 60 (USA 196)    
1 32260U 07047A   26129.33427965  .00000017  00000+0  00000+0 0  9996
2 32260  54.0676  81.6664 0165163  86.6853 275.1836  2.00557272136037
NAVSTAR 61 (USA 199)    
1 32384U 07062A   26129.63517030 -.00000023  00000+0  00000+0 0  9994
2 32384  55.0637 275.7021 0034902 163.1437 181.1290  2.00557631134734
NAVSTAR 62 (USA 201)    
1 32711U 08012A   26129.24883128  .00000081  00000+0  00000+0 0  9998
2 32711  54.4907 151.4804 0210213 247.3069 110.5070  2.00571431132977
NAVSTAR 64 (USA 206)    
1 35752U 09043A   26128.74685612 -.00000076  00000+0  00000+0 0  9998
2 35752  56.1866  29.0012 0053239  81.7189 288.3585  2.00556491122574
NAVSTAR 65 (USA 213)    
1 36585U 10022A   26129.57029222  .00000006  00000+0  00000+0 0  9995
2 36585  54.2745 210.1178 0126514  66.1077 295.9773  2.00560540116824
NAVSTAR 67 (USA 239)    
1 38833U 12053A   26128.92949029  .00000079  00000+0  00000+0 0  9993
2 38833  53.5778 145.2075 0178416  65.2750 296.6155  2.00566897 98653
NAVSTAR 68 (USA 242)    
1 39166U 13023A   26129.29399611 -.00000022  00000+0  00000+0 0  9997
2 39166  54.5360 270.5574 0141861  50.7897 310.4448  2.00563750 95104
NAVSTAR 69 (USA 248)    
1 39533U 14008A   26129.29503273  .00000080  00000+0  00000+0 0  9993
2 39533  53.6473 150.9061 0084018 230.4812 128.8233  2.00557352 88907
NAVSTAR 70 (USA 251)    
1 39741U 14026A   26129.07202583 -.00000056  00000+0  00000+0 0  9994
2 39741  56.5164 333.0405 0038698 326.8434  32.9448  2.00563983 87758
NAVSTAR 71 (USA 256)    
1 40105U 14045A   26129.16298467  .00000037  00000+0  00000+0 0  9995
2 40105  55.3284  90.0189 0031953 118.8948 241.4085  2.00555875 85291
NAVSTAR 72 (USA 258)    
1 40294U 14068A   26129.03601137 -.00000071  00000+0  00000+0 0  9996
2 40294  56.9619  32.4635 0065823  69.2412 291.4917  2.00573865 84425
NAVSTAR 73 (USA 260)    
1 40534U 15013A   26129.17145615  .00000009  00000+0  00000+0 0  9993
2 40534  53.1719 205.7914 0108937  40.0096 320.8491  2.00553738 81042
NAVSTAR 74 (USA 262)    
1 40730U 15033A   26129.33071777 -.00000023  00000+0  00000+0 0  9995
2 40730  54.0142 268.6879 0115022  30.0142 330.6238  2.00558319 79216
NAVSTAR 75 (USA 265)    
1 41019U 15062A   26128.88962599 -.00000072  00000+0  00000+0 0  9992
2 41019  56.9342  32.3255 0111311 231.4216 127.6064  2.00567055 77047
NAVSTAR 76 (USA 266)    
1 41328U 16007A   26129.47671126  .00000041  00000+0  00000+0 0  9999
2 41328  55.5010  90.9935 0096124 247.2134 111.7526  2.00553639 75060
NAVSTAR 77 (USA 289)    
1 43873U 18109A   26129.36869331  .00000046  00000+0  00000+0 0  9991
2 43873  55.6589  93.7178 0038090 198.8008 336.4382  2.00560015 54292
NAVSTAR 78 (USA 293)    
1 44506U 19056A   26129.26014919 -.00000057  00000+0  00000+0 0  9993
2 44506  55.6550 332.6905 0060092 197.3605 162.0664  2.00569482 49287
NAVSTAR 79 (USA 304)    
1 45854U 20041A   26128.08857494 -.00000075  00000+0  00000+0 0  9998
2 45854  56.6449  30.5000 0062533 204.8784 328.5903  2.00559772 43231
NAVSTAR 80 (USA 309)    
1 46826U 20078A   26129.38239204  .00000003  00000+0  00000+0 0  9995
2 46826  53.9858 212.3527 0071679 206.0435 156.7094  2.00565004 40736
NAVSTAR 81 (USA 319)    
1 48859U 21054A   26129.37127933 -.00000059  00000+0  00000+0 0  9994
2 48859  55.1921 334.0206 0024301 229.3471 311.1668  2.00571708 35975
NAVSTAR 82 (USA 343)    
1 55268U 23009A   26126.56820279  .00000055  00000+0  00000+0 0  9994
2 55268  55.1158 150.1548 0005801 314.7345  39.4736  2.00574558 24406
NAVSTAR 83 (USA 440)    
1 62339U 24242A   26129.21919804 -.00000062  00000+0  00000+0 0  9998
2 62339  54.8653 335.7619 0017010   3.2596 187.8830  2.00571029 10477
NAVSTAR 84 (USA 545)    
1 64202U 25116A   26120.52613795 -.00000106  00000+0  00000+0 0  9994
2 64202  55.2044  33.0485 0009185 336.4647 239.4016  2.00549603  6915
NAVSTAR 85 (USA 581)    
1 67588U 26017A   26126.81683976  .00000020  00000+0  00000+0 0  9995
2 67588  55.0623  90.4149 0023214 254.6508 105.0678  2.00572106430788
